GALAXY 25 (G-25)        
1 24812U 97026A   22341.16091227  .00000039  00000+0  00000+0 0  9991
2 24812   4.1191  81.9100 0010396 270.6553 207.1521  1.00120521 93463
INTELSAT 5 (IS-5)       
1 24916U 97046A   22350.76160557 -.00000042  00000+0  00000+0 0  9992
2 24916   7.6169  59.7720 0005773 191.8076 274.1079  1.00271580 92798
GALAXY 11 (G-11)        
1 26038U 99071A   22350.64246993 -.00000139  00000+0  00000+0 0  9992
2 26038   3.4823  85.3648 0001888 228.0104 270.0801  1.00271288 84264
INTELSAT 9 (IS-9)       
1 26451U 00043A   22350.25584524 -.00000268  00000+0  00000+0 0  9997
2 26451   7.5998  59.9536 0003791 200.1319 226.9138  1.00272729 82024
INTELSAT 1R (IS-1R)     
1 26608U 00072A   22350.67688115 -.00000116  00000+0  00000+0 0  9992
2 26608   4.8547  78.7700 0000109 319.7172  87.5823  1.00271251 80832
INTELSAT 10 (IS-10)     
1 26766U 01019A   22350.52271646  .00000055  00000+0  00000+0 0  9991
2 26766   6.0085  71.7903 0004090 192.5802 186.7543  1.00272563 32808
INTELSAT 901 (IS-901)   
1 26824U 01024A   22350.20257749 -.00000179  00000+0  00000+0 0  9993
2 26824   0.0285  69.7775 0000944 272.6178 147.8721  1.00272641 78761
INTELSAT 902 (IS-902)   
1 26900U 01039A   22350.86616390 -.00000258  00000+0  00000+0 0  9995
2 26900   2.8647  86.9739 0003502 190.4634  69.7565  1.00270767 77872
INTELSAT 904 (IS-904)   
1 27380U 02007A   22351.09285663 -.00000190  00000+0  00000+0 0  9990
2 27380   3.6929  83.9793 0003110 193.3836 172.2627  1.00270613 76277
DIRECTV 5 (TEMPO 1)     
1 27426U 02023A   22351.14541914 -.00000031  00000+0  00000+0 0  9993
2 27426   1.5903  91.0206 0003181 173.6870 123.2874  1.00272009 75486
INTELSAT 905 (IS-905)   
1 27438U 02027A   22350.85327233 -.00000161  00000+0  00000+0 0  9997
2 27438   3.5147  84.6986 0002705 177.3281 106.1397  1.00271941 38542
GALAXY 3C (G-3C)        
1 27445U 02030A   22351.19097630 -.00000127  00000+0  00000+0 0  9994
2 27445   0.4424  91.8874 0001349 224.8020 103.0402  1.00271154 75137
INTELSAT 906 (IS-906)   
1 27513U 02041A   22351.03238743  .00000039  00000+0  00000+0 0  9998
2 27513   2.5348  88.3822 0004827 173.0329 260.0155  1.00272077 74151
GALAXY 12 (G-12)        
1 27715U 03013B   22351.10369413  .00000081  00000+0  00000+0 0  9996
2 27715   3.7258  83.6388 0001871 191.1706  79.2426  1.00271769 72199
GALAXY 23 (G-23)        
1 27854U 03034A   22350.70859177  .00000038  00000+0  00000+0 0  9991
2 27854   0.0089 115.5461 0002862 148.8691 315.0071  1.00270956 70928
GALAXY 13 (HORIZONS-1)  
1 27954U 03044A   22350.69007669  .00000073  00000+0  00000+0 0  9991
2 27954   0.0109  55.6815 0000393 115.8746  35.1527  1.00270596 33757
INTELSAT 10-02          
1 28358U 04022A   22351.11577227  .00000014  00000+0  00000+0 0  9992
2 28358   0.0227  73.5884 0001222 240.9241 171.9160  1.00271929 67811
XM-3 (RHYTHM)           
1 28626U 05008A   22350.85919071 -.00000181  00000+0  00000+0 0  9998
2 28626   0.0222 137.3470 0001918  50.7372 121.5671  1.00268303 65243
DIRECTV 8               
1 28659U 05019A   22350.70902760  .00000025  00000+0  00000+0 0  9993
2 28659   0.0197  70.7280 0003096 193.2929 317.5236  1.00272445 64255
GALAXY 28 (G-28)        
1 28702U 05022A   22351.12587639 -.00000160  00000+0  00000+0 0  9998
2 28702   0.0123 355.4509 0002642 289.4241 117.1710  1.00272261 64012
GALAXY 14 (G-14)        
1 28790U 05030A   22350.84489637  .00000179  00000+0  00000+0 0  9990
2 28790   1.7221  90.2196 0001982 175.9389 156.3637  1.00271083 63484
GALAXY 15 (G-15)        
1 28884U 05041A   22350.67896527  .00000047  00000+0  00000+0 0  9991
2 28884   0.2772  92.5764 0004447 184.6721 289.0340  1.00311034 62794
SPACEWAY 2              
1 28903U 05046B   22350.42030823  .00000126  00000+0  00000+0 0  9998
2 28903   2.3182  86.2534 0000139 181.5693 189.6427  1.00270544 62675
GALAXY 16 (G-16)        
1 29236U 06023A   22350.64124963 -.00000103  00000+0  00000+0 0  9993
2 29236   0.0154  32.7920 0002708 232.9421 311.3829  1.00272347 60152
DIRECTV 9S              
1 29494U 06043A   22350.64081380 -.00000089  00000+0  00000+0 0  9999
2 29494   0.0182  32.0357 0002886 235.2503 307.4770  1.00271523 38566
XM-4 (BLUES)            
1 29520U 06049A   22350.45819486 -.00000182  00000+0  00000+0 0  9994
2 29520   0.0301 278.7385 0001796  39.7378 206.4609  1.00271467 59171
GALAXY 17 (G-17)        
1 31307U 07016B   22351.12438470 -.00000150  00000+0  00000+0 0  9995
2 31307   0.0194  26.8019 0003241 259.4077 113.3211  1.00272787 57266
DIRECTV 10              
1 31862U 07032A   22350.37104314 -.00000079  00000+0  00000+0 0  9992
2 31862   0.0291 134.3914 0000159  96.1218 245.2692  1.00268708 56587
SPACEWAY 3              
1 32018U 07036A   22351.19097670 -.00000127  00000+0  00000+0 0  9991
2 32018   0.6942  91.1734 0000484 349.7066 338.7307  1.00271285 56315
INTELSAT 11 (IS-11)     
1 32253U 07044B   22350.85882944 -.00000244  00000+0  00000+0 0  9999
2 32253   0.2505  93.9331 0003336 194.3123  63.4143  1.00271466 55676
HORIZONS-2              
1 32388U 07063B   22350.78974233 -.00000229  00000+0  00000+0 0  9997
2 32388   0.0158 303.5924 0002232 336.7934  15.5400  1.00271859 54995
DIRECTV 11              
1 32729U 08013A   22350.44888882 -.00000102  00000+0  00000+0 0  9999
2 32729   0.0274 157.9944 0000819 115.2988 234.1947  1.00270744 54115
GALAXY 18 (G-18)        
1 32951U 08024A   22350.67896527  .00000049  00000+0  00000+0 0  9997
2 32951   0.0173 326.2780 0003033 297.6078 302.8435  1.00271343 33034
INTELSAT 25 (IS-25)     
1 33153U 08034A   22351.09285663 -.00000199  00000+0  00000+0 0  9990
2 33153   0.0111 314.9570 0002894 309.1771 183.5071  1.00271372 52825
GALAXY 19 (G-19)        
1 33376U 08045A   22350.54595036 -.00000116  00000+0  00000+0 0  9995
2 33376   0.0141 337.8470 0002851 295.0175 271.8489  1.00272296 52013
FM-5                    
1 35493U 09034A   22351.12736250 -.00000176  00000+0  00000+0 0  9992
2 35493   0.0178 357.1622 0000423 175.5061 232.7957  1.00272276 49164
INTELSAT 14 (IS-14)     
1 36097U 09064A   22350.79549521 -.00000249  00000+0  00000+0 0  9992
2 36097   0.0163  16.5918 0002393 250.6742  59.5462  1.00271824 47782
INTELSAT 15 (IS-15)     
1 36106U 09067A   22351.10822090 -.00000160  00000+0  00000+0 0  9999
2 36106   0.0156 332.7774 0002278 291.5914 305.4711  1.00272211 47786
DIRECTV 12              
1 36131U 09075A   22350.54232285 -.00000079  00000+0  00000+0 0  9993
2 36131   0.0117 196.9077 0000070  62.5012 278.2700  1.00268583 33743
INTELSAT 16 (IS-16)     
1 36397U 10006A   22350.99493802 -.00000220  00000+0  00000+0 0  9994
2 36397   0.0149 327.2153 0002082 293.2856 107.0885  1.00272594 46902
XM-5                    
1 37185U 10053A   22350.43688520  .00000000  00000+0  00000+0 0  9999
2 37185   0.0142 343.9267 0000615 171.7963 331.4347  1.00274799 44623
INTELSAT 17 (IS-17)     
1 37238U 10065B   22350.83659424  .00000022  00000+0  00000+0 0  9990
2 37238   0.0161 282.6897 0002523 348.6078 181.3371  1.00271278 40425
INTELSAT NEW DAWN       
1 37392U 11016A   22350.84489637  .00000180  00000+0  00000+0 0  9991
2 37392   0.0207  98.3395 0000995 178.6714 145.4246  1.00272432 40460
INTELSAT 18 (IS-18)     
1 37834U 11056A   22350.84010159  .00000077  00000+0  00000+0 0  9990
2 37834   0.0219   7.6383 0001945 257.1150 303.1443  1.00271398 40997
INTELSAT 22 (IS-22)     
1 38098U 12011A   22350.81876824 -.00000034  00000+0  00000+0 0  9995
2 38098   0.0302  50.0452 0002456 212.5214 189.7113  1.00270372 39009
INTELSAT 19 (IS-19)     
1 38356U 12030A   22350.83750872 -.00000032  00000+0  00000+0 0  9997
2 38356   0.0144 350.6640 0003254 281.2484 281.0534  1.00271958 37627
INTELSAT 20 (IS-20)     
1 38740U 12043A   22350.53590855 -.00000001  00000+0  00000+0 0  9994
2 38740   0.0093  70.9522 0003434 126.7310 148.8930  1.00270677 38009
INTELSAT 21 (IS-21)     
1 38749U 12045A   22351.14304597 -.00000260  00000+0  00000+0 0  9996
2 38749   0.0180  53.7334 0001914 206.1927 179.3430  1.00273132 37825
INTELSAT 23 (IS-23)     
1 38867U 12057A   22351.14661623 -.00000260  00000+0  00000+0 0  9996
2 38867   0.0195 329.2038 0000765 338.3013 138.0495  1.00272324 37297
FM-6                    
1 39360U 13058A   22350.53189927  .00000006  00000+0  00000+0 0  9998
2 39360   0.0021   8.1880 0000143 215.5385 296.7537  1.00274011 33526
INTELSAT 30 (IS-30)     
1 40271U 14062A   22351.00049236 -.00000126  00000+0  00000+0 0  9992
2 40271   0.0195 342.4546 0002339 123.5712 244.7174  1.00272064 29942
DIRECTV 14              
1 40333U 14078B   22350.37359494 -.00000102  00000+0  00000+0 0  9991
2 40333   0.0323  72.6933 0000219 101.5112 306.0586  1.00270371 29242
DIRECTV 15              
1 40663U 15026A   22350.40658802 -.00000079  00000+0  00000+0 0  9993
2 40663   0.0155  27.9778 0000288 343.5519 117.0086  1.00272157 27647
SKY MEXICO-1            
1 40664U 15026B   22350.78878351 -.00000210  00000+0  00000+0 0  9995
2 40664   0.0134  21.4775 0002173 250.5431  18.5928  1.00272457 27638
INTELSAT 34 (IS-34)     
1 40874U 15039A   22350.79340325 -.00000261  00000+0  00000+0 0  9994
2 40874   0.0154 348.2350 0000828 200.4670 126.8365  1.00270816 26809
INTELSAT 31 (IS-31)     
1 41581U 16035A   22350.54789517 -.00000126  00000+0  00000+0 0  9990
2 41581   0.0208 266.9576 0002313 293.1615 347.2363  1.00269349 23870
INTELSAT 36 (IS-36)     
1 41747U 16053A   22349.23938332 -.00000004  00000+0  00000+0 0  9994
2 41747   0.0110 359.8353 0001057   2.6662 236.0535  1.00270712 23119
INTELSAT 33E (IS-33E)   
1 41748U 16053B   22350.81641479  .00000073  00000+0  00000+0 0  9999
2 41748   0.0092 333.3138 0001793 289.7569 176.2661  1.00271167 23433
INTELSAT 32E (IS-32E)   
1 41945U 17007B   22350.43719646 -.00000245  00000+0  00000+0 0  9990
2 41945   0.0185  15.8515 0000267 156.3246  27.1025  1.00272746 21410
INTELSAT 35E (IS-35E)   
1 42818U 17041A   22348.31737733 -.00000219  00000+0  00000+0 0  9990
2 42818   0.0181 329.8824 0001853 302.9326 249.8973  1.00269487 19978
INTELSAT 37E (IS-37E)   
1 42950U 17059A   22350.44216487 -.00000117  00000+0  00000+0 0  9998
2 42950   0.0167 355.1137 0002689 274.0193 317.1201  1.00272670 19248
AZERSPACE 2 (IS-38)     
1 43632U 18074A   22349.52225675  .00000158  00000+0  00000+0 0  9994
2 43632   0.0174  19.6426 0001509 254.1806  43.4693  1.00272012 15618
HORIZONS-3E             
1 43633U 18074B   22347.25187434 -.00000013  00000+0  00000+0 0  9994
2 43633   0.0405 144.1707 0001719 131.9965  65.4290  1.00270646 15486
AT&T T-16               
1 44333U 19034A   22348.37341115 -.00000095  00000+0  00000+0 0  9991
2 44333   0.0362  86.9431 0000236 179.4196 210.2170  1.00268589 12790
INTELSAT 39 (IS-39)     
1 44476U 19049B   22350.54840764  .00000057  00000+0  00000+0 0  9998
2 44476   0.0167 326.2259 0000992 178.5712 199.7536  1.00270951 12313
GALAXY 30 (G-30)        
1 46114U 20056C   22348.39875340  .00000056  00000+0  00000+0 0  9996
2 46114   0.0185   9.2510 0002201 253.8591 198.4992  1.00271536  8451
GALAXY 33 (G-33)        
1 54026U 22128A   22350.69007669  .00000103  00000+0  00000+0 0  9999
2 54026   0.0143 336.6222 0001930 284.3837 299.7322  1.00272266   931
GALAXY 34 (G-34)        
1 54027U 22128B   22348.67896324  .00000078  00000+0  00000+0 0  9990
2 54027   0.0093  44.1137 0001380  55.3438  99.2745  1.00274496   933
GALAXY 31 (G-31)        
1 54243U 22153A   22350.77474997  .00000156  00000+0  00000+0 0  9997
2 54243   0.0603 116.3221 0002337 189.9212 269.1306  1.00269216   321
GALAXY 32 (G-32)        
1 54244U 22153B   22350.74632889  .00000155  00000+0  00000+0 0  9990
2 54244   0.0102   2.3318 0002395 285.4280 277.2526  1.00273496   338
GALAXY 35 (G-35)        
1 54741U 22170A   22350.18729448 -.00000213  00000+0  00000+0 0  9993
2 54741   3.2871 218.7269 5571717 178.9031 316.2064  1.94785585    49
GALAXY 36 (G-36)        
1 54742U 22170B   22350.43859110 -.00000334  00000+0  00000+0 0  9996
2 54742   3.4316 218.5973 5690531 178.9831 147.4403  1.97380797    51
